[{"OBJECT_NAME":"STARLINK-4572","OBJECT_ID":"2022-105AW","EPOCH":"2026-03-09T16:09:10.695744","MEAN_MOTION":15.21020685,"ECCENTRICITY":0.00018422,"INCLINATION":97.6182,"RA_OF_ASC_NODE":315.6347,"ARG_OF_PERICENTER":18.3505,"MEAN_ANOMALY":341.7796,"EPHEMERIS_TYPE":0,"CLASSIFICATION_TYPE":"U","NORAD_CAT_ID":53692,"ELEMENT_SET_NO":999,"REV_AT_EPOCH":19355,"BSTAR":0.00056421038,"MEAN_MOTION_DOT":0.00012459,"MEAN_MOTION_DDOT":0},{"OBJECT_NAME":"FLOCK 4H-33","OBJECT_ID":"2025-276BY","EPOCH":"2026-03-09T18:09:06.535296","MEAN_MOTION":15.19689011,"ECCENTRICITY":9.559e-5,"INCLINATION":97.4288,"RA_OF_ASC_NODE":144.1705,"ARG_OF_PERICENTER":288.4074,"MEAN_ANOMALY":71.7057,"EPHEMERIS_TYPE":0,"CLASSIFICATION_TYPE":"U","NORAD_CAT_ID":66736,"ELEMENT_SET_NO":999,"REV_AT_EPOCH":1533,"BSTAR":0.00040674179,"MEAN_MOTION_DOT":8.618e-5,"MEAN_MOTION_DDOT":0}]
